[{"OBJECT_NAME":"STARLINK-34699","OBJECT_ID":"2025-157T","EPOCH":"2026-03-09T01:12:43.593984","MEAN_MOTION":15.30200675,"ECCENTRICITY":0.00012655,"INCLINATION":53.1605,"RA_OF_ASC_NODE":348.8012,"ARG_OF_PERICENTER":70.551,"MEAN_ANOMALY":289.5628,"EPHEMERIS_TYPE":0,"CLASSIFICATION_TYPE":"U","NORAD_CAT_ID":64921,"ELEMENT_SET_NO":999,"REV_AT_EPOCH":3602,"BSTAR":0.00040136469,"MEAN_MOTION_DOT":0.00011547,"MEAN_MOTION_DDOT":0},{"OBJECT_NAME":"TRANSPORTER-1 OBJECT M","OBJECT_ID":"2021-006M","EPOCH":"2026-03-09T22:05:37.843296","MEAN_MOTION":15.3227845,"ECCENTRICITY":0.00102759,"INCLINATION":97.2377,"RA_OF_ASC_NODE":116.7915,"ARG_OF_PERICENTER":187.5492,"MEAN_ANOMALY":172.5597,"EPHEMERIS_TYPE":0,"CLASSIFICATION_TYPE":"U","NORAD_CAT_ID":47424,"ELEMENT_SET_NO":999,"REV_AT_EPOCH":28439,"BSTAR":0.00023985652,"MEAN_MOTION_DOT":7.411e-5,"MEAN_MOTION_DDOT":0}]
